STARLINK-3366           
1 51104U 22005A   26068.87200473  .00000873  00000+0  72901-4 0  9993
2 51104  53.2165 288.3062 0001080  86.7312 273.3804 15.08843448228903
LEMUR-2-LLOYD           
1 60577U 24149DP  26068.46001441  .00012007  00000+0  80143-3 0  9995
2 60577  97.6780 149.6779 0005186 125.6096 234.5616 15.07168338 85367
